start=new Date('2022-11-07T00:00:00.000Z').valueOf();
sats=[{"EPHEMERIS_TYPE":"0","INCLINATION":"53.2212","SITE":"AFETR","DECAY_DATE":null,"MEAN_MOTION_DOT":"0.00001070","MEAN_ELEMENT_THEORY":"SGP4","PERIAPSIS":"538.377","ARG_OF_PERICENTER":"46.2216","CLASSIFICATION_TYPE":"U","OBJECT_TYPE":"PAYLOAD","ECCENTRICITY":"0.00020250","NORAD_CAT_ID":"53168","ELEMENT_SET_NO":"999","RCS_SIZE":"LARGE","EPOCH":"2022-11-06T01:52:27.422688","PERIOD":"95.438","APOAPSIS":"541.179","TIME_SYSTEM":"UTC","LAUNCH_DATE":"2022-07-17","RA_OF_ASC_NODE":"239.1681","TLE_LINE2":"2 53168  53.2212 239.1681 0002025  46.2216 313.8944 15.08829210 17242","TLE_LINE1":"1 53168U 22083AN  22310.07809517  .00001070  00000-0  85367-4 0  9994","REF_FRAME":"TEME","FILE":"3647066","OBJECT_NAME":"STARLINK-4105","MEAN_ANOMALY":"313.8944","COUNTRY_CODE":"US","GP_ID":"217059055","MEAN_MOTION":"15.08829210","MEAN_MOTION_DDOT":"0.0000000000000","SEMIMAJOR_AXIS":"6917.913","CENTER_NAME":"EARTH","OBJECT_ID":"2022-083AN","BSTAR":"0.00008536700000","REV_AT_EPOCH":"1724"},{"MEAN_ELEMENT_THEORY":"SGP4","CLASSIFICATION_TYPE":"U","ARG_OF_PERICENTER":"48.8459","PERIAPSIS":"538.399","SITE":"AFETR","INCLINATION":"53.2153","EPHEMERIS_TYPE":"0","MEAN_MOTION_DOT":"-0.00002637","DECAY_DATE":null,"TIME_SYSTEM":"UTC","APOAPSIS":"541.104","TLE_LINE2":"2 53169  53.2153 223.7233 0001955  48.8459 311.2702 15.08838142 18099","RA_OF_ASC_NODE":"223.7233","LAUNCH_DATE":"2022-07-17","ECCENTRICITY":"0.00019550","NORAD_CAT_ID":"53169","ELEMENT_SET_NO":"999","OBJECT_TYPE":"PAYLOAD","PERIOD":"95.438","EPOCH":"2022-11-06T04:16:15.771648","RCS_SIZE":"LARGE","MEAN_ANOMALY":"311.2702","COUNTRY_CODE":"US","TLE_LINE1":"1 53169U 22083AP  22310.17796032 -.00002637  00000-0 -14766-3 0  9999","FILE":"3647155","REF_FRAME":"TEME","OBJECT_NAME":"STARLINK-4117","MEAN_MOTION_DDOT":"0.0000000000000","SEMIMAJOR_AXIS":"6917.886","REV_AT_EPOCH":"1809","BSTAR":"-0.00014766000000","OBJECT_ID":"2022-083AP","CENTER_NAME":"EARTH","MEAN_MOTION":"15.08838142","GP_ID":"217061744"},{"MEAN_ELEMENT_THEORY":"SGP4","PERIAPSIS":"538.673","ARG_OF_PERICENTER":"46.6313","CLASSIFICATION_TYPE":"U","EPHEMERIS_TYPE":"0","INCLINATION":"53.2146","SITE":"AFETR","DECAY_DATE":null,"MEAN_MOTION_DOT":"-0.00000408","APOAPSIS":"540.863","TIME_SYSTEM":"UTC","LAUNCH_DATE":"2022-07-17","RA_OF_ASC_NODE":"232.2361","TLE_LINE2":"2 53170  53.2146 232.2361 0001583  46.6313 313.4810 15.08832635 17377","OBJECT_TYPE":"PAYLOAD","ELEMENT_SET_NO":"999","NORAD_CAT_ID":"53170","ECCENTRICITY":"0.00015830","RCS_SIZE":"LARGE","EPOCH":"2022-11-06T12:11:51.046080","PERIOD":"95.438","MEAN_ANOMALY":"313.4810","COUNTRY_CODE":"US","TLE_LINE1":"1 53170U 22083AQ  22310.50822970 -.00000408  00000-0 -75257-5 0  9997","REF_FRAME":"TEME","FILE":"3647066","OBJECT_NAME":"STARLINK-4095","SEMIMAJOR_AXIS":"6917.903","MEAN_MOTION_DDOT":"0.0000000000000","CENTER_NAME":"EARTH","OBJECT_ID":"2022-083AQ","BSTAR":"-0.00000752570000","REV_AT_EPOCH":"1737","GP_ID":"217059228","MEAN_MOTION":"15.08832635"},{"RA_OF_ASC_NODE":"215.4734","TLE_LINE2":"2 53171  53.2130 215.4734 0007758 270.7882  89.2249 15.73196186 17559","LAUNCH_DATE":"2022-07-17","TIME_SYSTEM":"UTC","APOAPSIS":"354.991","PERIOD":"91.533","EPOCH":"2022-11-05T23:56:40.922304","RCS_SIZE":"LARGE","ECCENTRICITY":"0.00077580","NORAD_CAT_ID":"53171","ELEMENT_SET_NO":"999","OBJECT_TYPE":"PAYLOAD","ARG_OF_PERICENTER":"270.7882","CLASSIFICATION_TYPE":"U","PERIAPSIS":"344.552","MEAN_ELEMENT_THEORY":"SGP4","MEAN_MOTION_DOT":"0.00024151","DECAY_DATE":null,"SITE":"AFETR","EPHEMERIS_TYPE":"0","INCLINATION":"53.2130","OBJECT_ID":"2022-083AR","BSTAR":"0.00017579000000","REV_AT_EPOCH":"1755","CENTER_NAME":"EARTH","SEMIMAJOR_AXIS":"6727.906","MEAN_MOTION_DDOT":"0.0000000000000","GP_ID":"217059401","MEAN_MOTION":"15.73196186","COUNTRY_CODE":"US","MEAN_ANOMALY":"89.2249","OBJECT_NAME":"STARLINK-4052","TLE_LINE1":"1 53171U 22083AR  22309.99769586  .00024151  00000-0  17579-3 0  9992","REF_FRAME":"TEME","FILE":"3647066"},{"DECAY_DATE":null,"MEAN_MOTION_DOT":"-0.00000661","INCLINATION":"53.2153","EPHEMERIS_TYPE":"0","SITE":"AFETR","PERIAPSIS":"538.491","CLASSIFICATION_TYPE":"U","ARG_OF_PERICENTER":"56.8098","MEAN_ELEMENT_THEORY":"SGP4","RCS_SIZE":"LARGE","EPOCH":"2022-11-06T18:28:07.118976","PERIOD":"95.439","OBJECT_TYPE":"PAYLOAD","NORAD_CAT_ID":"53172","ECCENTRICITY":"0.00018960","ELEMENT_SET_NO":"999","LAUNCH_DATE":"2022-07-17","TLE_LINE2":"2 53172  53.2153 231.0584 0001896  56.8098 303.3076 15.08821413 18040","RA_OF_ASC_NODE":"231.0584","APOAPSIS":"541.114","TIME_SYSTEM":"UTC","OBJECT_NAME":"STARLINK-4299","REF_FRAME":"TEME","TLE_LINE1":"1 53172U 22083AS  22310.76952684 -.00000661  00000-0 -23431-4 0  9990","FILE":"3647169","COUNTRY_CODE":"US","MEAN_ANOMALY":"303.3076","MEAN_MOTION":"15.08821413","GP_ID":"217062222","CENTER_NAME":"EARTH","BSTAR":"-0.00002343100000","REV_AT_EPOCH":"1804","OBJECT_ID":"2022-083AS","SEMIMAJOR_AXIS":"6917.937","MEAN_MOTION_DDOT":"0.0000000000000"},{"TLE_LINE1":"1 53173U 22083AT  22310.58334491 -.01055398  00000-0 -25063-1 0  9999","FILE":"3647066","REF_FRAME":"TEME","OBJECT_NAME":"STARLINK-4300","MEAN_ANOMALY":"33.2450","COUNTRY_CODE":"US","GP_ID":"217059848","MEAN_MOTION":"15.44087208","SEMIMAJOR_AXIS":"6812.198","MEAN_MOTION_DDOT":"0.0000000000000","OBJECT_ID":"2022-083AT","REV_AT_EPOCH":"130","BSTAR":"-0.02506300000000","CENTER_NAME":"EARTH","SITE":"AFETR","EPHEMERIS_TYPE":"0","INCLINATION":"53.2164","MEAN_MOTION_DOT":"-0.01055398","DECAY_DATE":null,"MEAN_ELEMENT_THEORY":"SGP4","ARG_OF_PERICENTER":"62.4462","CLASSIFICATION_TYPE":"U","PERIAPSIS":"433.219","ECCENTRICITY":"0.00012390","NORAD_CAT_ID":"53173","ELEMENT_SET_NO":"999","OBJECT_TYPE":"PAYLOAD","PERIOD":"93.259","EPOCH":"2022-11-06T14:00:01.000224","RCS_SIZE":"LARGE","TIME_SYSTEM":"UTC","APOAPSIS":"434.907","RA_OF_ASC_NODE":"213.9025","TLE_LINE2":"2 53173  53.2164 213.9025 0001239  62.4462  33.2450 15.44087208  1303","LAUNCH_DATE":"2022-07-17"},{"COUNTRY_CODE":"US","MEAN_ANOMALY":"309.9199","OBJECT_NAME":"STARLINK-4205","REF_FRAME":"TEME","TLE_LINE1":"1 53174U 22083AU  22310.54454143 -.00000404  00000-0 -72887-5 0  9990","FILE":"3647156","OBJECT_ID":"2022-083AU","BSTAR":"-0.00000728870000","REV_AT_EPOCH":"1780","CENTER_NAME":"EARTH","SEMIMAJOR_AXIS":"6917.904","MEAN_MOTION_DDOT":"0.0000000000000","GP_ID":"217061755","MEAN_MOTION":"15.08832236","ARG_OF_PERICENTER":"50.1959","CLASSIFICATION_TYPE":"U","PERIAPSIS":"538.467","MEAN_ELEMENT_THEORY":"SGP4","MEAN_MOTION_DOT":"-0.00000404","DECAY_DATE":null,"SITE":"AFETR","EPHEMERIS_TYPE":"0","INCLINATION":"53.2207","RA_OF_ASC_NODE":"247.0702","TLE_LINE2":"2 53174  53.2207 247.0702 0001882  50.1959 309.9199 15.08832236 17805","LAUNCH_DATE":"2022-07-17","TIME_SYSTEM":"UTC","APOAPSIS":"541.071","PERIOD":"95.438","EPOCH":"2022-11-06T13:04:08.379552","RCS_SIZE":"LARGE","ELEMENT_SET_NO":"999","NORAD_CAT_ID":"53174","ECCENTRICITY":"0.00018820","OBJECT_TYPE":"PAYLOAD"},{"SITE":"AFETR","INCLINATION":"53.2201","EPHEMERIS_TYPE":"0","MEAN_MOTION_DOT":"-0.00001190","DECAY_DATE":null,"MEAN_ELEMENT_THEORY":"SGP4","CLASSIFICATION_TYPE":"U","ARG_OF_PERICENTER":"38.4515","PERIAPSIS":"538.235","ELEMENT_SET_NO":"999","ECCENTRICITY":"0.00022240","NORAD_CAT_ID":"53175","OBJECT_TYPE":"PAYLOAD","PERIOD":"95.438","EPOCH":"2022-11-06T12:58:50.740320","RCS_SIZE":"LARGE","TIME_SYSTEM":"UTC","APOAPSIS":"541.312","TLE_LINE2":"2 53175  53.2201 247.0878 0002224  38.4515 321.6635 15.08830832 17808","RA_OF_ASC_NODE":"247.0878","LAUNCH_DATE":"2022-07-17","TLE_LINE1":"1 53175U 22083AV  22310.54086505 -.00001190  00000-0 -56655-4 0  9991","REF_FRAME":"TEME","FILE":"3647156","OBJECT_NAME":"STARLINK-4292","MEAN_ANOMALY":"321.6635","COUNTRY_CODE":"US","MEAN_MOTION":"15.08830832","GP_ID":"217061758","MEAN_MOTION_DDOT":"0.0000000000000","SEMIMAJOR_AXIS":"6917.908","REV_AT_EPOCH":"1780","BSTAR":"-0.00005665500000","OBJECT_ID":"2022-083AV","CENTER_NAME":"EARTH"},{"LAUNCH_DATE":"2022-07-17","TLE_LINE2":"2 53176  53.2169 222.0221 0001908  44.2097 315.9047 15.08845264 18152","RA_OF_ASC_NODE":"222.0221","APOAPSIS":"541.049","TIME_SYSTEM":"UTC","RCS_SIZE":"LARGE","PERIOD":"95.437","EPOCH":"2022-11-06T13:16:46.854912","OBJECT_TYPE":"PAYLOAD","NORAD_CAT_ID":"53176","ECCENTRICITY":"0.00019080","ELEMENT_SET_NO":"999","PERIAPSIS":"538.409","CLASSIFICATION_TYPE":"U","ARG_OF_PERICENTER":"44.2097","MEAN_ELEMENT_THEORY":"SGP4","DECAY_DATE":null,"MEAN_MOTION_DOT":"-0.00000819","INCLINATION":"53.2169","EPHEMERIS_TYPE":"0","SITE":"AFETR","CENTER_NAME":"EARTH","REV_AT_EPOCH":"1815","BSTAR":"-0.00003334500000","OBJECT_ID":"2022-083AW","SEMIMAJOR_AXIS":"6917.864","MEAN_MOTION_DDOT":"0.0000000000000","MEAN_MOTION":"15.08845264","GP_ID":"217062099","COUNTRY_CODE":"US","MEAN_ANOMALY":"315.9047","OBJECT_NAME":"STARLINK-4294","TLE_LINE1":"1 53176U 22083AW  22310.55332008 -.00000819  00000-0 -33345-4 0  9993","REF_FRAME":"TEME","FILE":"3647156"},{"CENTER_NAME":"EARTH","OBJECT_ID":"2022-083AX","BSTAR":"-0.02506600000000","REV_AT_EPOCH":"130","SEMIMAJOR_AXIS":"6810.419","MEAN_MOTION_DDOT":"0.0000000000000","GP_ID":"217059576","MEAN_MOTION":"15.44692346","COUNTRY_CODE":"US","MEAN_ANOMALY":"12.9639","OBJECT_NAME":"STARLINK-4298","TLE_LINE1":"1 53177U 22083AX  22310.58334491 -.01090810  00000-0 -25066-1 0  9994","FILE":"3647066","REF_FRAME":"TEME","LAUNCH_DATE":"2022-07-17","RA_OF_ASC_NODE":"213.9261","TLE_LINE2":"2 53177  53.2167 213.9261 0001141  89.5469  12.9639 15.44692346  1309","APOAPSIS":"433.061","TIME_SYSTEM":"UTC","RCS_SIZE":"LARGE","PERIOD":"93.222","EPOCH":"2022-11-06T14:00:01.000224","OBJECT_TYPE":"PAYLOAD","NORAD_CAT_ID":"53177","ECCENTRICITY":"0.00011410","ELEMENT_SET_NO":"999","PERIAPSIS":"431.507","ARG_OF_PERICENTER":"89.5469","CLASSIFICATION_TYPE":"U","MEAN_ELEMENT_THEORY":"SGP4","DECAY_DATE":null,"MEAN_MOTION_DOT":"-0.01090810","EPHEMERIS_TYPE":"0","INCLINATION":"53.2167","SITE":"AFETR"}];
